GLOBALSTAR M057         
1 25943U 99058A   25229.56353684 -.00000115  00000+0 -19883-3 0  9994
2 25943  51.9974 174.0180 0002566 131.3903 228.7167 12.24827401174455
GLOBALSTAR M059         
1 25944U 99058B   25229.47043674 -.00000032  00000+0  67423-3 0  9990
2 25944  52.0029  41.3808 0001387  80.8329 295.1471 11.99981844581408
GLOBALSTAR M056         
1 25945U 99058C   25229.39011142 -.00000106  00000+0 -21731-3 0  9992
2 25945  51.9976  41.9877 0000579   5.6657   3.8224 12.04779629170004
GLOBALSTAR M031         
1 25946U 99058D   25229.47215133  .00000030  00000+0  12197-2 0  9997
2 25946  51.9965 290.4288 0000939 300.4800  73.4951 12.16040334172005
GLOBALSTAR M039         
1 25961U 99062A   25229.84621966 -.00000100  00000+0  22180-4 0  9999
2 25961  51.9842  80.9142 0003208 111.7666 248.3542 12.62330763188030
GLOBALSTAR M034         
1 25962U 99062B   25229.32474926 -.00000054  00000+0  42912-3 0  9997
2 25962  51.9842 212.4643 0013960 156.8361 343.1001 11.79447779145600
GLOBALSTAR M029         
1 25963U 99062C   25229.48319101 -.00000061  00000+0  31193-3 0  9995
2 25963  51.9805 289.3347 0002489 230.8512 142.7397 11.99899653176484
GLOBALSTAR M061         
1 25964U 99062D   25229.62350718 -.00000095  00000+0 -24190-3 0  9998
2 25964  51.9811  36.5377 0006818  81.2738 357.3168 11.76775482128413
